{"type": "FeatureCollection", "features": [ {"type": "Feature", "properties": {"norad_id": 33867, "name": "IRIDIUM 33 DEB", "group": "iridium-33-debris", "lat": 62.559012183081606, "lon": 159.4182136083546, "alt_km": 308.80909439489005, "timestamp": "2025-12-19T16:54:44.647093+00:00", "meta": {"OBJECT_NAME": "IRIDIUM 33 DEB", "OBJECT_ID": "1997-051AL", "EPOCH": "2025-12-19T05:47:32.216640", "MEAN_MOTION": 15.81283526, "ECCENTRICITY": 0.00136168, "INCLINATION": 86.3654, "RA_OF_ASC_NODE": 346.6955, "ARG_OF_PERICENTER": 94.4725, "MEAN_ANOMALY": 265.8107, "EPHEMERIS_TYPE": 0, "CLASSIFICATION_TYPE": "U", "NORAD_CAT_ID": 33867, "ELEMENT_SET_NO": 999, "REV_AT_EPOCH": 89613, "BSTAR": 0.0071361823, "MEAN_MOTION_DOT": 0.01596226, "MEAN_MOTION_DDOT": 0}, "tle": {"line1": "1 33867U 97051AL  25353.24134510  .01596226  00000+0  71362-2 0  9998", "line2": "2 33867  86.3654 346.6955 0013616  94.4725 265.8107 15.81283526896134"}}, "geometry": {"type": "Point", "coordinates": [159.4182136083546, 62.559012183081606]}}, {"type": "Feature", "properties": {"norad_id": 33870, "name": "IRIDIUM 33 DEB", "group": "iridium-33-debris", "lat": -16.821438101710342, "lon": -123.62598001826932, "alt_km": 732.183173731556, "timestamp": "2025-12-19T16:54:44.647104+00:00", "meta": {"OBJECT_NAME": "IRIDIUM 33 DEB", "OBJECT_ID": "1997-051AP", "EPOCH": "2025-12-19T04:30:01.525824", "MEAN_MOTION": 14.45883065, "ECCENTRICITY": 0.00221566, "INCLINATION": 86.3744, "RA_OF_ASC_NODE": 55.4973, "ARG_OF_PERICENTER": 157.4139, "MEAN_ANOMALY": 228.9344, "EPHEMERIS_TYPE": 0, "CLASSIFICATION_TYPE": "U", "NORAD_CAT_ID": 33870, "ELEMENT_SET_NO": 999, "REV_AT_EPOCH": 88230, "BSTAR": 0.00054158262, "MEAN_MOTION_DOT": 1.949e-05, "MEAN_MOTION_DDOT": 0}, "tle": {"line1": "1 33870U 97051AP  25353.18751766  .00001949  00000+0  54158-3 0  9990", "line2": "2 33870  86.3744  55.4973 0022156 157.4139 228.9344 14.45883065882301"}}, "geometry": {"type": "Point", "coordinates": [-123.62598001826932, -16.821438101710342]}}, {"type": "Feature", "properties": {"norad_id": 33881, "name": "IRIDIUM 33 DEB", "group": "iridium-33-debris", "lat": -25.638802618896086, "lon": 101.97684759891851, "alt_km": 753.110899705649, "timestamp": "2025-12-19T16:54:44.647115+00:00", "meta": {"OBJECT_NAME": "IRIDIUM 33 DEB", "OBJECT_ID": "1997-051BA", "EPOCH": "2025-12-18T18:38:37.341312", "MEAN_MOTION": 14.56678227, "ECCENTRICITY": 0.00614608, "INCLINATION": 86.3861, "RA_OF_ASC_NODE": 104.1184, "ARG_OF_PERICENTER": 155.2089, "MEAN_ANOMALY": 356.6087, "EPHEMERIS_TYPE": 0, "CLASSIFICATION_TYPE": "U", "NORAD_CAT_ID": 33881, "ELEMENT_SET_NO": 999, "REV_AT_EPOCH": 87588, "BSTAR": 0.0015458281, "MEAN_MOTION_DOT": 7.103e-05, "MEAN_MOTION_DDOT": 0}, "tle": {"line1": "1 33881U 97051BA  25352.77682108  .00007103  00000+0  15458-2 0  9996", "line2": "2 33881  86.3861 104.1184 0061460 155.2089 356.6087 14.56678227875882"}}, "geometry": {"type": "Point", "coordinates": [101.97684759891851, -25.638802618896086]}}, {"type": "Feature", "properties": {"norad_id": 33884, "name": "IRIDIUM 33 DEB", "group": "iridium-33-debris", "lat": 82.48806568946151, "lon": 35.46074386953857, "alt_km": 635.0418205865744, "timestamp": "2025-12-19T16:54:44.647126+00:00", "meta": {"OBJECT_NAME": "IRIDIUM 33 DEB", "OBJECT_ID": "1997-051BD", "EPOCH": "2025-12-19T06:51:00.175680", "MEAN_MOTION": 14.77551072, "ECCENTRICITY": 0.0009195, "INCLINATION": 86.3691, "RA_OF_ASC_NODE": 6.8636, "ARG_OF_PERICENTER": 298.3453, "MEAN_ANOMALY": 76.3453, "EPHEMERIS_TYPE": 0, "CLASSIFICATION_TYPE": "U", "NORAD_CAT_ID": 33884, "ELEMENT_SET_NO": 999, "REV_AT_EPOCH": 88944, "BSTAR": 0.001004041, "MEAN_MOTION_DOT": 7.196e-05, "MEAN_MOTION_DDOT": 0}, "tle": {"line1": "1 33884U 97051BD  25353.28541870  .00007196  00000+0  10040-2 0  9990", "line2": "2 33884  86.3691   6.8636 0009195 298.3453  76.3453 14.77551072889448"}}, "geometry": {"type": "Point", "coordinates": [35.46074386953857, 82.48806568946151]}}, {"type": "Feature", "properties": {"norad_id": 33886, "name": "IRIDIUM 33 DEB", "group": "iridium-33-debris", "lat": 51.25041383218532, "lon": 68.81806195518811, "alt_km": 775.7704063959227, "timestamp": "2025-12-19T16:54:44.647137+00:00", "meta": {"OBJECT_NAME": "IRIDIUM 33 DEB", "OBJECT_ID": "1997-051BF", "EPOCH": "2025-12-19T03:37:10.795296", "MEAN_MOTION": 14.36059291, "ECCENTRICITY": 0.00128366, "INCLINATION": 86.3826, "RA_OF_ASC_NODE": 64.5303, "ARG_OF_PERICENTER": 218.5013, "MEAN_ANOMALY": 211.4365, "EPHEMERIS_TYPE": 0, "CLASSIFICATION_TYPE": "U", "NORAD_CAT_ID": 33886, "ELEMENT_SET_NO": 999, "REV_AT_EPOCH": 88144, "BSTAR": 0.00015106109, "MEAN_MOTION_DOT": 4.59e-06, "MEAN_MOTION_DDOT": 0}, "tle": {"line1": "1 33886U 97051BF  25353.15081939  .00000459  00000+0  15106-3 0  9997", "line2": "2 33886  86.3826  64.5303 0012836 218.5013 211.4365 14.36059291881441"}}, "geometry": {"type": "Point", "coordinates": [68.81806195518811, 51.25041383218532]}}, {"type": "Feature", "properties": {"norad_id": 33887, "name": "IRIDIUM 33 DEB", "group": "iridium-33-debris", "lat": 16.868513737780248, "lon": 1.5136506144880526, "alt_km": 771.9455497259241, "timestamp": "2025-12-19T16:54:44.647149+00:00", "meta": {"OBJECT_NAME": "IRIDIUM 33 DEB", "OBJECT_ID": "1997-051BG", "EPOCH": "2025-12-19T06:53:26.464704", "MEAN_MOTION": 14.37226609, "ECCENTRICITY": 0.00051038, "INCLINATION": 86.3041, "RA_OF_ASC_NODE": 0.5705, "ARG_OF_PERICENTER": 199.9282, "MEAN_ANOMALY": 177.9319, "EPHEMERIS_TYPE": 0, "CLASSIFICATION_TYPE": "U", "NORAD_CAT_ID": 33887, "ELEMENT_SET_NO": 999, "REV_AT_EPOCH": 88259, "BSTAR": 0.00011184202, "MEAN_MOTION_DOT": 3.53e-06, "MEAN_MOTION_DDOT": 0}, "tle": {"line1": "1 33887U 97051BG  25353.28711186  .00000353  00000+0  11184-3 0  9991", "line2": "2 33887  86.3041   0.5705 0005103 199.9282 177.9319 14.37226609882598"}}, "geometry": {"type": "Point", "coordinates": [1.5136506144880526, 16.868513737780248]}}, {"type": "Feature", "properties": {"norad_id": 33953, "name": "IRIDIUM 33 DEB", "group": "iridium-33-debris", "lat": -33.64557779667426, "lon": 48.34491438249378, "alt_km": 719.7770525173291, "timestamp": "2025-12-19T16:54:44.647159+00:00", "meta": {"OBJECT_NAME": "IRIDIUM 33 DEB", "OBJECT_ID": "1997-051BN", "EPOCH": "2025-12-19T03:59:07.956384", "MEAN_MOTION": 14.55382741, "ECCENTRICITY": 0.00180317, "INCLINATION": 86.3844, "RA_OF_ASC_NODE": 50.9905, "ARG_OF_PERICENTER": 83.2549, "MEAN_ANOMALY": 303.1026, "EPHEMERIS_TYPE": 0, "CLASSIFICATION_TYPE": "U", "NORAD_CAT_ID": 33953, "ELEMENT_SET_NO": 999, "REV_AT_EPOCH": 88397, "BSTAR": 0.0008151616, "MEAN_MOTION_DOT": 3.566e-05, "MEAN_MOTION_DDOT": 0}, "tle": {"line1": "1 33953U 97051BN  25353.16606431  .00003566  00000+0  81516-3 0  9993", "line2": "2 33953  86.3844  50.9905 0018031  83.2549 303.1026 14.55382741883970"}}, "geometry": {"type": "Point", "coordinates": [48.34491438249378, -33.64557779667426]}}, {"type": "Feature", "properties": {"norad_id": 33960, "name": "IRIDIUM 33 DEB", "group": "iridium-33-debris", "lat": 17.47258721605733, "lon": 105.04763596203661, "alt_km": 614.5965830994801, "timestamp": "2025-12-19T16:54:44.647170+00:00", "meta": {"OBJECT_NAME": "IRIDIUM 33 DEB", "OBJECT_ID": "1997-051BV", "EPOCH": "2025-12-18T21:04:17.238720", "MEAN_MOTION": 14.85489781, "ECCENTRICITY": 0.00074649, "INCLINATION": 86.254, "RA_OF_ASC_NODE": 286.6192, "ARG_OF_PERICENTER": 52.1098, "MEAN_ANOMALY": 12.0352, "EPHEMERIS_TYPE": 0, "CLASSIFICATION_TYPE": "U", "NORAD_CAT_ID": 33960, "ELEMENT_SET_NO": 999, "REV_AT_EPOCH": 88958, "BSTAR": 0.0022083229, "MEAN_MOTION_DOT": 0.0001912, "MEAN_MOTION_DDOT": 0}, "tle": {"line1": "1 33960U 97051BV  25352.87797730  .00019120  00000+0  22083-2 0  9997", "line2": "2 33960  86.2540 286.6192 0007464  52.1098  12.0352 14.85489781889584"}}, "geometry": {"type": "Point", "coordinates": [105.04763596203661, 17.47258721605733]}}, {"type": "Feature", "properties": {"norad_id": 33966, "name": "IRIDIUM 33 DEB", "group": "iridium-33-debris", "lat": -51.28077152186578, "lon": 38.52408060967818, "alt_km": 738.4845976999322, "timestamp": "2025-12-19T16:54:44.647180+00:00", "meta": {"OBJECT_NAME": "IRIDIUM 33 DEB", "OBJECT_ID": "1997-051CB", "EPOCH": "2025-12-18T15:23:51.544320", "MEAN_MOTION": 14.49616316, "ECCENTRICITY": 0.00080643, "INCLINATION": 86.3918, "RA_OF_ASC_NODE": 43.4945, "ARG_OF_PERICENTER": 169.3872, "MEAN_ANOMALY": 354.7755, "EPHEMERIS_TYPE": 0, "CLASSIFICATION_TYPE": "U", "NORAD_CAT_ID": 33966, "ELEMENT_SET_NO": 999, "REV_AT_EPOCH": 88527, "BSTAR": 0.00039110994, "MEAN_MOTION_DOT": 1.522e-05, "MEAN_MOTION_DDOT": 0}, "tle": {"line1": "1 33966U 97051CB  25352.64156880  .00001522  00000+0  39111-3 0  9991", "line2": "2 33966  86.3918  43.4945 0008064 169.3872 354.7755 14.49616316885274"}}, "geometry": {"type": "Point", "coordinates": [38.52408060967818, -51.28077152186578]}}, {"type": "Feature", "properties": {"norad_id": 34071, "name": "IRIDIUM 33 DEB", "group": "iridium-33-debris", "lat": 11.546888295354057, "lon": 15.549216503935806, "alt_km": 727.1165709094348, "timestamp": "2025-12-19T16:54:44.647191+00:00", "meta": {"OBJECT_NAME": "IRIDIUM 33 DEB", "OBJECT_ID": "1997-051CE", "EPOCH": "2025-12-19T03:36:16.848000", "MEAN_MOTION": 14.49491498, "ECCENTRICITY": 0.00099478, "INCLINATION": 86.3449, "RA_OF_ASC_NODE": 15.0419, "ARG_OF_PERICENTER": 90.2014, "MEAN_ANOMALY": 270.033, "EPHEMERIS_TYPE": 0, "CLASSIFICATION_TYPE": "U", "NORAD_CAT_ID": 34071, "ELEMENT_SET_NO": 999, "REV_AT_EPOCH": 88427, "BSTAR": 0.00044755385, "MEAN_MOTION_DOT": 1.735e-05, "MEAN_MOTION_DDOT": 0}, "tle": {"line1": "1 34071U 97051CE  25353.15019500  .00001735  00000+0  44755-3 0  9999", "line2": "2 34071  86.3449  15.0419 0009947  90.2014 270.0330 14.49491498884273"}}, "geometry": {"type": "Point", "coordinates": [15.549216503935806, 11.546888295354057]}}]}